{"type": "FeatureCollection", "features": [ {"type": "Feature", "properties": {"norad_id": 29953, "name": "FENGYUN 1C DEB", "group": "fengyun-1c-debris", "lat": 81.01490231826264, "lon": -109.75366777532442, "alt_km": 978.002786976529, "timestamp": "2025-12-25T07:41:09.995783+00:00", "meta": {"OBJECT_NAME": "FENGYUN 1C DEB", "OBJECT_ID": "1999-025KB", "EPOCH": "2025-12-24T22:52:52.705056", "MEAN_MOTION": 13.90859812, "ECCENTRICITY": 0.01056668, "INCLINATION": 98.9387, "RA_OF_ASC_NODE": 345.4103, "ARG_OF_PERICENTER": 233.07, "MEAN_ANOMALY": 182.6149, "EPHEMERIS_TYPE": 0, "CLASSIFICATION_TYPE": "U", "NORAD_CAT_ID": 29953, "ELEMENT_SET_NO": 999, "REV_AT_EPOCH": 96032, "BSTAR": 0.00035589343, "MEAN_MOTION_DOT": 4.23e-06, "MEAN_MOTION_DDOT": 0}, "tle": {"line1": "1 29953U 99025KB  25358.95338779  .00000423  00000+0  35589-3 0  9998", "line2": "2 29953  98.9387 345.4103 0105666 233.0700 182.6149 13.90859812960320"}}, "geometry": {"type": "Point", "coordinates": [-109.75366777532442, 81.01490231826264]}}, {"type": "Feature", "properties": {"norad_id": 29954, "name": "FENGYUN 1C DEB", "group": "fengyun-1c-debris", "lat": -27.142485588594525, "lon": -145.68800566213503, "alt_km": 735.0630232584181, "timestamp": "2025-12-25T07:41:09.995793+00:00", "meta": {"OBJECT_NAME": "FENGYUN 1C DEB", "OBJECT_ID": "1999-025KC", "EPOCH": "2025-12-24T20:40:16.726944", "MEAN_MOTION": 14.34285089, "ECCENTRICITY": 0.00747319, "INCLINATION": 100.1494, "RA_OF_ASC_NODE": 39.0431, "ARG_OF_PERICENTER": 235.0775, "MEAN_ANOMALY": 124.3368, "EPHEMERIS_TYPE": 0, "CLASSIFICATION_TYPE": "U", "NORAD_CAT_ID": 29954, "ELEMENT_SET_NO": 999, "REV_AT_EPOCH": 98361, "BSTAR": 0.00083316656, "MEAN_MOTION_DOT": 2.356e-05, "MEAN_MOTION_DDOT": 0}, "tle": {"line1": "1 29954U 99025KC  25358.86130471  .00002356  00000+0  83317-3 0  9997", "line2": "2 29954 100.1494  39.0431 0074731 235.0775 124.3368 14.34285089983619"}}, "geometry": {"type": "Point", "coordinates": [-145.68800566213503, -27.142485588594525]}}, {"type": "Feature", "properties": {"norad_id": 29955, "name": "FENGYUN 1C DEB", "group": "fengyun-1c-debris", "lat": 56.948151648158394, "lon": -84.47462403239903, "alt_km": 758.6381021462903, "timestamp": "2025-12-25T07:41:09.995804+00:00", "meta": {"OBJECT_NAME": "FENGYUN 1C DEB", "OBJECT_ID": "1999-025KD", "EPOCH": "2025-12-24T04:32:48.301152", "MEAN_MOTION": 14.38335522, "ECCENTRICITY": 0.00082863, "INCLINATION": 99.2726, "RA_OF_ASC_NODE": 79.7644, "ARG_OF_PERICENTER": 216.9083, "MEAN_ANOMALY": 172.9467, "EPHEMERIS_TYPE": 0, "CLASSIFICATION_TYPE": "U", "NORAD_CAT_ID": 29955, "ELEMENT_SET_NO": 999, "REV_AT_EPOCH": 98226, "BSTAR": 0.0015338334, "MEAN_MOTION_DOT": 4.625e-05, "MEAN_MOTION_DDOT": 0}, "tle": {"line1": "1 29955U 99025KD  25358.18944793  .00004625  00000+0  15338-2 0  9991", "line2": "2 29955  99.2726  79.7644 0008286 216.9083 172.9467 14.38335522982266"}}, "geometry": {"type": "Point", "coordinates": [-84.47462403239903, 56.948151648158394]}}, {"type": "Feature", "properties": {"norad_id": 29956, "name": "FENGYUN 1C DEB", "group": "fengyun-1c-debris", "lat": 7.855442718634514, "lon": -150.96834073393788, "alt_km": 912.2690453168907, "timestamp": "2025-12-25T07:41:09.995814+00:00", "meta": {"OBJECT_NAME": "FENGYUN 1C DEB", "OBJECT_ID": "1999-025KE", "EPOCH": "2025-12-24T17:47:50.136864", "MEAN_MOTION": 14.06174317, "ECCENTRICITY": 0.00531223, "INCLINATION": 98.7905, "RA_OF_ASC_NODE": 27.2466, "ARG_OF_PERICENTER": 343.8219, "MEAN_ANOMALY": 140.3219, "EPHEMERIS_TYPE": 0, "CLASSIFICATION_TYPE": "U", "NORAD_CAT_ID": 29956, "ELEMENT_SET_NO": 999, "REV_AT_EPOCH": 97218, "BSTAR": 0.00011664532, "MEAN_MOTION_DOT": 1.51e-06, "MEAN_MOTION_DDOT": 0}, "tle": {"line1": "1 29956U 99025KE  25358.74155251  .00000151  00000+0  11665-3 0  9997", "line2": "2 29956  98.7905  27.2466 0053122 343.8219 140.3219 14.06174317972182"}}, "geometry": {"type": "Point", "coordinates": [-150.96834073393788, 7.855442718634514]}}, {"type": "Feature", "properties": {"norad_id": 29957, "name": "FENGYUN 1C DEB", "group": "fengyun-1c-debris", "lat": 70.41579139111965, "lon": -26.75000956751928, "alt_km": 692.2267821498535, "timestamp": "2025-12-25T07:41:09.995824+00:00", "meta": {"OBJECT_NAME": "FENGYUN 1C DEB", "OBJECT_ID": "1999-025KF", "EPOCH": "2025-12-24T08:16:57.234432", "MEAN_MOTION": 14.51496545, "ECCENTRICITY": 0.00366247, "INCLINATION": 98.9207, "RA_OF_ASC_NODE": 126.017, "ARG_OF_PERICENTER": 144.4418, "MEAN_ANOMALY": 270.6119, "EPHEMERIS_TYPE": 0, "CLASSIFICATION_TYPE": "U", "NORAD_CAT_ID": 29957, "ELEMENT_SET_NO": 999, "REV_AT_EPOCH": 97660, "BSTAR": 0.0046738543, "MEAN_MOTION_DOT": 0.00018843, "MEAN_MOTION_DDOT": 0}, "tle": {"line1": "1 29957U 99025KF  25358.34510688  .00018843  00000+0  46739-2 0  9999", "line2": "2 29957  98.9207 126.0170 0036624 144.4418 270.6119 14.51496545976601"}}, "geometry": {"type": "Point", "coordinates": [-26.75000956751928, 70.41579139111965]}}, {"type": "Feature", "properties": {"norad_id": 29958, "name": "FENGYUN 1C DEB", "group": "fengyun-1c-debris", "lat": 26.35779614344968, "lon": -162.34788562870648, "alt_km": 874.3375955310148, "timestamp": "2025-12-25T07:41:09.995834+00:00", "meta": {"OBJECT_NAME": "FENGYUN 1C DEB", "OBJECT_ID": "1999-025KG", "EPOCH": "2025-12-24T19:04:33.426048", "MEAN_MOTION": 14.14472271, "ECCENTRICITY": 0.00538781, "INCLINATION": 98.6679, "RA_OF_ASC_NODE": 12.8074, "ARG_OF_PERICENTER": 298.2973, "MEAN_ANOMALY": 61.2771, "EPHEMERIS_TYPE": 0, "CLASSIFICATION_TYPE": "U", "NORAD_CAT_ID": 29958, "ELEMENT_SET_NO": 999, "REV_AT_EPOCH": 97621, "BSTAR": 0.00031462593, "MEAN_MOTION_DOT": 5.68e-06, "MEAN_MOTION_DDOT": 0}, "tle": {"line1": "1 29958U 99025KG  25358.79483132  .00000568  00000+0  31463-3 0  9996", "line2": "2 29958  98.6679  12.8074 0053878 298.2973  61.2771 14.14472271976215"}}, "geometry": {"type": "Point", "coordinates": [-162.34788562870648, 26.35779614344968]}}, {"type": "Feature", "properties": {"norad_id": 29959, "name": "FENGYUN 1C DEB", "group": "fengyun-1c-debris", "lat": 69.53726782302803, "lon": -125.81399636451745, "alt_km": 896.2256003766252, "timestamp": "2025-12-25T07:41:09.995845+00:00", "meta": {"OBJECT_NAME": "FENGYUN 1C DEB", "OBJECT_ID": "1999-025KH", "EPOCH": "2025-12-24T00:34:05.130336", "MEAN_MOTION": 14.06020463, "ECCENTRICITY": 0.00414216, "INCLINATION": 98.807, "RA_OF_ASC_NODE": 28.3763, "ARG_OF_PERICENTER": 295.582, "MEAN_ANOMALY": 93.6488, "EPHEMERIS_TYPE": 0, "CLASSIFICATION_TYPE": "U", "NORAD_CAT_ID": 29959, "ELEMENT_SET_NO": 999, "REV_AT_EPOCH": 97099, "BSTAR": 0.00025468944, "MEAN_MOTION_DOT": 3.78e-06, "MEAN_MOTION_DDOT": 0}, "tle": {"line1": "1 29959U 99025KH  25358.02367049  .00000378  00000+0  25469-3 0  9999", "line2": "2 29959  98.8070  28.3763 0041421 295.5820  93.6488 14.06020463970998"}}, "geometry": {"type": "Point", "coordinates": [-125.81399636451745, 69.53726782302803]}}, {"type": "Feature", "properties": {"norad_id": 29960, "name": "FENGYUN 1C DEB", "group": "fengyun-1c-debris", "lat": -64.19986950399273, "lon": 2.7654386161567746, "alt_km": 797.7610591292887, "timestamp": "2025-12-25T07:41:09.995855+00:00", "meta": {"OBJECT_NAME": "FENGYUN 1C DEB", "OBJECT_ID": "1999-025KJ", "EPOCH": "2025-12-24T10:40:49.099872", "MEAN_MOTION": 14.16423036, "ECCENTRICITY": 0.00907985, "INCLINATION": 98.6158, "RA_OF_ASC_NODE": 343.6403, "ARG_OF_PERICENTER": 252.3025, "MEAN_ANOMALY": 260.979, "EPHEMERIS_TYPE": 0, "CLASSIFICATION_TYPE": "U", "NORAD_CAT_ID": 29960, "ELEMENT_SET_NO": 999, "REV_AT_EPOCH": 97620, "BSTAR": 0.0003826444, "MEAN_MOTION_DOT": 7.49e-06, "MEAN_MOTION_DDOT": 0}, "tle": {"line1": "1 29960U 99025KJ  25358.44501273  .00000749  00000+0  38264-3 0  9995", "line2": "2 29960  98.6158 343.6403 0090798 252.3025 260.9790 14.16423036976207"}}, "geometry": {"type": "Point", "coordinates": [2.7654386161567746, -64.19986950399273]}}, {"type": "Feature", "properties": {"norad_id": 29961, "name": "FENGYUN 1C DEB", "group": "fengyun-1c-debris", "lat": -4.632443461443075, "lon": 66.25067217422894, "alt_km": 801.5383950062933, "timestamp": "2025-12-25T07:41:09.995865+00:00", "meta": {"OBJECT_NAME": "FENGYUN 1C DEB", "OBJECT_ID": "1999-025KK", "EPOCH": "2025-12-24T22:23:49.167744", "MEAN_MOTION": 14.26226072, "ECCENTRICITY": 0.00738266, "INCLINATION": 98.9482, "RA_OF_ASC_NODE": 246.5869, "ARG_OF_PERICENTER": 269.2507, "MEAN_ANOMALY": 90.0212, "EPHEMERIS_TYPE": 0, "CLASSIFICATION_TYPE": "U", "NORAD_CAT_ID": 29961, "ELEMENT_SET_NO": 999, "REV_AT_EPOCH": 98483, "BSTAR": 0.00019303146, "MEAN_MOTION_DOT": 4.29e-06, "MEAN_MOTION_DDOT": 0}, "tle": {"line1": "1 29961U 99025KK  25358.93320796  .00000429  00000+0  19303-3 0  9997", "line2": "2 29961  98.9482 246.5869 0073826 269.2507  90.0212 14.26226072984834"}}, "geometry": {"type": "Point", "coordinates": [66.25067217422894, -4.632443461443075]}}, {"type": "Feature", "properties": {"norad_id": 29962, "name": "FENGYUN 1C DEB", "group": "fengyun-1c-debris", "lat": -35.37416956443279, "lon": -179.17239014176704, "alt_km": 805.9459807460571, "timestamp": "2025-12-25T07:41:09.995875+00:00", "meta": {"OBJECT_NAME": "FENGYUN 1C DEB", "OBJECT_ID": "1999-025KL", "EPOCH": "2025-12-24T22:27:43.353216", "MEAN_MOTION": 14.07164772, "ECCENTRICITY": 0.01102371, "INCLINATION": 98.7682, "RA_OF_ASC_NODE": 6.7457, "ARG_OF_PERICENTER": 186.7437, "MEAN_ANOMALY": 242.4985, "EPHEMERIS_TYPE": 0, "CLASSIFICATION_TYPE": "U", "NORAD_CAT_ID": 29962, "ELEMENT_SET_NO": 999, "REV_AT_EPOCH": 97169, "BSTAR": 3.1998767e-05, "MEAN_MOTION_DOT": 1.4e-07, "MEAN_MOTION_DDOT": 0}, "tle": {"line1": "1 29962U 99025KL  25358.93591844  .00000014  00000+0  31999-4 0  9998", "line2": "2 29962  98.7682   6.7457 0110237 186.7437 242.4985 14.07164772971694"}}, "geometry": {"type": "Point", "coordinates": [-179.17239014176704, -35.37416956443279]}}]}